ONEWEB-0275             
1 48993U 21060AC  25079.67956339 -.00000017  00000+0 -78144-4 0  9990
2 48993  87.9084 319.1807 0001830  81.7948 278.3391 13.16596248179880
ONEWEB-0276             
1 48994U 21060AD  25079.71280466 -.00000564  00000+0 -15101-2 0  9996
2 48994  87.9081 319.1714 0001888  79.1053 281.0290 13.16595047179904
ONEWEB-0277             
1 48995U 21060AE  25079.72548254  .00000117  00000+0  27127-3 0  9994
2 48995  87.9083 319.2049 0002104  75.5047 284.6317 13.16592780179892
ONEWEB-0278             
1 48996U 21060AF  25079.71598069  .00000068  00000+0  14446-3 0  9998
2 48996  87.9081 319.1666 0001480  79.1162 281.0135 13.16592497180020
ONEWEB-0279             
1 48997U 21060AG  25079.72388549  .00000192  00000+0  46811-3 0  9999
2 48997  87.9081 319.1616 0002057  81.2157 278.9207 13.16598066181254
ONEWEB-0280             
1 48998U 21060AH  25079.66294935  .00000099  00000+0  22438-3 0  9993
2 48998  87.9083 319.1793 0001726  68.0211 292.1103 13.16595200179885
ONEWEB-0281             
1 48999U 21060AJ  25079.66847561  .00000087  00000+0  19303-3 0  9997
2 48999  87.9082 319.1768 0001777  85.1744 274.9589 13.16597919181264
ONEWEB-0282             
1 49000U 21060AK  25079.69857531 -.00000021  00000+0 -88345-4 0  9995
2 49000  87.9081 319.1874 0001851  75.5691 284.5646 13.16594684181258
